[
    {
        "Altitude(m)": 604234.5898183271,
        "Argument of Periapsis(deg)": 0.0,
        "Eccentricity": 0.0,
        "Inclination(deg)": 60.0,
        "Latitude(deg)": 14.117125066785167,
        "Longitude(deg)": -103.27266155535247,
        "Mean Anomaly(deg)": 163.6364,
        "RAAN(deg)": 184.99999999999997,
        "Satellite Name": "Test1 824",
        "Satellite Number": 824,
        "Semi-Major Axis(m)": 6980739.136638005,
        "Time(s)": 0
    },
    {
        "Altitude(m)": 604223.4190281632,
        "Argument of Periapsis(deg)": 0.00010418945913296404,
        "Eccentricity": 0.0,
        "Inclination(deg)": 60.0,
        "Latitude(deg)": 13.582261207136645,
        "Longitude(deg)": -102.98575294929152,
        "Mean Anomaly(deg)": 164.25650614546186,
        "RAAN(deg)": 184.99957995086024,
        "Satellite Name": "Test1 824",
        "Satellite Number": 824,
        "Semi-Major Axis(m)": 6980739.136638005,
        "Time(s)": 10
    }
]